{
  "norad_id": 67287,
  "name": "LUCA (RS90S)",
  "history": [
    {
      "epoch": "2026-03-28T20:59:43.600416Z",
      "apogee_km": 502.1824663133093,
      "perigee_km": 490.76483795781587,
      "latitude_deg": 4.4067967632350255e-06,
      "longitude_deg": 22.75084284528671,
      "height_km": 498.71345683035565,
      "semi_major_axis_km": 6874.610652135562,
      "eccentricity": 0.00083042,
      "inclination_deg": 97.3981,
      "raan_deg": 163.9715,
      "arg_perigee_deg": 278.6877,
      "mean_anomaly_deg": 81.3419,
      "mean_motion_rev_day": 15.23107659
    },
    {
      "epoch": "2026-03-29T03:18:08.522496Z",
      "apogee_km": 502.1389840196762,
      "perigee_km": 490.76154209931246,
      "latitude_deg": 1.2595351817174117e-05,
      "longitude_deg": -71.8532163066187,
      "height_km": 498.793758642401,
      "semi_major_axis_km": 6874.587263059494,
      "eccentricity": 0.0008275,
      "inclination_deg": 97.3981,
      "raan_deg": 164.2303,
      "arg_perigee_deg": 277.6638,
      "mean_anomaly_deg": 82.3659,
      "mean_motion_rev_day": 15.23115432
    },
    {
      "epoch": "2026-03-30T04:31:47.096256Z",
      "apogee_km": 502.0536920851673,
      "perigee_km": 490.66952239158036,
      "latitude_deg": 3.763272722621237e-05,
      "longitude_deg": -90.26419463105587,
      "height_km": 499.12216603280115,
      "semi_major_axis_km": 6874.498607238374,
      "eccentricity": 0.000828,
      "inclination_deg": 97.398,
      "raan_deg": 165.2661,
      "arg_perigee_deg": 273.442,
      "mean_anomaly_deg": 86.587,
      "mean_motion_rev_day": 15.23144896
    },
    {
      "epoch": "2026-03-30T04:31:47.097120Z",
      "apogee_km": 502.0538983201259,
      "perigee_km": 490.6693161566227,
      "latitude_deg": 4.1042719157850266e-05,
      "longitude_deg": -90.26419868123399,
      "height_km": 499.12215364834816,
      "semi_major_axis_km": 6874.498607238374,
      "eccentricity": 0.00082803,
      "inclination_deg": 97.398,
      "raan_deg": 165.2661,
      "arg_perigee_deg": 273.442,
      "mean_anomaly_deg": 86.587,
      "mean_motion_rev_day": 15.23144896
    },
    {
      "epoch": "2026-03-30T10:50:11.473152Z",
      "apogee_km": 502.04920783390025,
      "perigee_km": 490.63056423665876,
      "latitude_deg": 1.781830710092751e-05,
      "longitude_deg": 175.13422793498702,
      "height_km": 499.2134498671576,
      "semi_major_axis_km": 6874.47688603528,
      "eccentricity": 0.00083051,
      "inclination_deg": 97.3979,
      "raan_deg": 165.5251,
      "arg_perigee_deg": 272.2966,
      "mean_anomaly_deg": 87.732,
      "mean_motion_rev_day": 15.23152115
    },
    {
      "epoch": "2026-03-30T20:17:47.861376Z",
      "apogee_km": 502.03816023378295,
      "perigee_km": 490.57900939954106,
      "latitude_deg": 2.3909660345308237e-05,
      "longitude_deg": 33.23239718021428,
      "height_km": 499.350810088428,
      "semi_major_axis_km": 6874.445584816662,
      "eccentricity": 0.00083346,
      "inclination_deg": 97.3979,
      "raan_deg": 165.9134,
      "arg_perigee_deg": 270.6019,
      "mean_anomaly_deg": 89.4263,
      "mean_motion_rev_day": 15.23162518
    },
    {
      "epoch": "2026-03-31T19:56:47.886720Z",
      "apogee_km": 502.0046029080859,
      "perigee_km": 490.4680296087399,
      "latitude_deg": 5.897331137015076e-07,
      "longitude_deg": 38.482024659995794,
      "height_km": 499.67919701539523,
      "semi_major_axis_km": 6874.373316258412,
      "eccentricity": 0.0008391,
      "inclination_deg": 97.3978,
      "raan_deg": 166.8844,
      "arg_perigee_deg": 266.6176,
      "mean_anomaly_deg": 93.4101,
      "mean_motion_rev_day": 15.23186537
    },
    {
      "epoch": "2026-04-01T19:35:46.567680Z",
      "apogee_km": 501.9258391981384,
      "perigee_km": 490.4058824639578,
      "latitude_deg": -1.888274320812584e-05,
      "longitude_deg": 43.737268478256766,
      "height_km": 500.02953867804456,
      "semi_major_axis_km": 6874.302860831048,
      "eccentricity": 0.0008379,
      "inclination_deg": 97.3976,
      "raan_deg": 167.8554,
      "arg_perigee_deg": 262.4078,
      "mean_anomaly_deg": 97.6207,
      "mean_motion_rev_day": 15.23209954
    },
    {
      "epoch": "2026-04-02T19:14:43.706400Z",
      "apogee_km": 501.81251646403234,
      "perigee_km": 490.3037389811989,
      "latitude_deg": -2.1199947129087244e-05,
      "longitude_deg": 48.9990532173658,
      "height_km": 500.3135794818739,
      "semi_major_axis_km": 6874.195127722615,
      "eccentricity": 0.0008371,
      "inclination_deg": 97.3973,
      "raan_deg": 168.8265,
      "arg_perigee_deg": 258.4447,
      "mean_anomaly_deg": 101.585,
      "mean_motion_rev_day": 15.23245762
    },
    {
      "epoch": "2026-04-02T22:23:55.169088Z",
      "apogee_km": 501.8032416466367,
      "perigee_km": 490.2862375601053,
      "latitude_deg": -3.036016972896955e-05,
      "longitude_deg": 1.701296623110209,
      "height_km": 500.35137877700896,
      "semi_major_axis_km": 6874.181739603371,
      "eccentricity": 0.0008377,
      "inclination_deg": 97.3973,
      "raan_deg": 168.956,
      "arg_perigee_deg": 257.9329,
      "mean_anomaly_deg": 102.0969,
      "mean_motion_rev_day": 15.23250212
    },
    {
      "epoch": "2026-04-03T18:53:38.848416Z",
      "apogee_km": 501.74809237927457,
      "perigee_km": 490.16524454791306,
      "latitude_deg": -5.641320216685868e-05,
      "longitude_deg": 54.26928387478757,
      "height_km": 500.6026854647257,
      "semi_major_axis_km": 6874.0936684635935,
      "eccentricity": 0.0008425,
      "inclination_deg": 97.3969,
      "raan_deg": 169.7977,
      "arg_perigee_deg": 254.5468,
      "mean_anomaly_deg": 105.4838,
      "mean_motion_rev_day": 15.23279486
    },
    {
      "epoch": "2026-04-04T20:07:07.557024Z",
      "apogee_km": 501.7088980777344,
      "perigee_km": 490.0175984554817,
      "latitude_deg": 4.337114950631396e-05,
      "longitude_deg": 35.89951177265534,
      "height_km": 500.91714018088567,
      "semi_major_axis_km": 6874.000248266608,
      "eccentricity": 0.0008504,
      "inclination_deg": 97.3965,
      "raan_deg": 170.8335,
      "arg_perigee_deg": 250.5043,
      "mean_anomaly_deg": 109.5276,
      "mean_motion_rev_day": 15.23310539
    },
    {
      "epoch": "2026-04-05T10:18:26.687520Z",
      "apogee_km": 501.6836485035419,
      "perigee_km": 489.9437655700076,
      "latitude_deg": -2.568971346748048e-06,
      "longitude_deg": -176.93030066091376,
      "height_km": 501.1020314654202,
      "semi_major_axis_km": 6873.9507070367745,
      "eccentricity": 0.00085394,
      "inclination_deg": 97.3963,
      "raan_deg": 171.4161,
      "arg_perigee_deg": 248.1434,
      "mean_anomaly_deg": 111.8895,
      "mean_motion_rev_day": 15.23327007
    },
    {
      "epoch": "2026-04-05T18:11:23.803296Z",
      "apogee_km": 501.66882074243586,
      "perigee_km": 489.90890837334973,
      "latitude_deg": 6.588321527207747e-05,
      "longitude_deg": 64.83158342124815,
      "height_km": 501.2087470522313,
      "semi_major_axis_km": 6873.925864557892,
      "eccentricity": 0.0008554,
      "inclination_deg": 97.3962,
      "raan_deg": 171.7397,
      "arg_perigee_deg": 246.795,
      "mean_anomaly_deg": 113.2387,
      "mean_motion_rev_day": 15.23335265
    },
    {
      "epoch": "2026-04-06T03:38:56.145408Z",
      "apogee_km": 501.65776592860766,
      "perigee_km": 489.8649059434756,
      "latitude_deg": -3.880496149383285e-05,
      "longitude_deg": -77.0531293409766,
      "height_km": 501.3430367148336,
      "semi_major_axis_km": 6873.898335936042,
      "eccentricity": 0.0008578,
      "inclination_deg": 97.3962,
      "raan_deg": 172.1282,
      "arg_perigee_deg": 245.1426,
      "mean_anomaly_deg": 114.8919,
      "mean_motion_rev_day": 15.23344416
    },
    {
      "epoch": "2026-04-07T19:03:38.856672Z",
      "apogee_km": 501.5991466337273,
      "perigee_km": 489.7294665375148,
      "latitude_deg": -4.267819684386481e-05,
      "longitude_deg": 51.76911537575828,
      "height_km": 501.8838266025058,
      "semi_major_axis_km": 6873.80130658562,
      "eccentricity": 0.0008634,
      "inclination_deg": 97.3959,
      "raan_deg": 173.747,
      "arg_perigee_deg": 238.3243,
      "mean_anomaly_deg": 121.7152,
      "mean_motion_rev_day": 15.23376671
    }
  ]
}